0 FENGYUN 1C DEB
1 36196U 99025DTV 13286.90898445  .00002193  00000-0  13345-2 0  2083
2 36196 099.1211 323.6655 0045877 173.9966 186.1361 14.06728993294787
0 FENGYUN 1C DEB
1 36196U 99025DTV 13291.88779655  .00002360  00000-0  14331-2 0  2090
2 36196 099.1229 328.6875 0046318 159.5170 200.8435 14.06755198295484
